KUZGTU 1 (RS47S)        
1 57217U 23091AV  26169.86550135  .00009294  00000+0  32301-3 0  9999
2 57217  97.5059 234.3626 0012275  92.8486 267.4159 15.29892478164638
SONATE-2                
1 59112U 24043Q   26169.67901345  .00030619  00000+0  39665-3 0  9990
2 59112  97.5539 320.1662 0007133 190.3549 169.7561 15.58811253128121
MESAT1                  
1 60209U 24125G   26169.32249336  .00046639  00000+0  50655-3 0  9998
2 60209  97.2281  26.8304 0009668 199.4839 160.6052 15.63304730109746
OOV-CUBE (TUBSAT-30)    
1 60240U 24128F   26169.58586730  .00001416  00000+0  11902-3 0  9992
2 60240  61.9932 220.6959 0044464 134.0792 226.3973 15.02778203106324
COLIBRI-S (RS67S)       
1 61746U 24199M   26169.80743289  .00016036  00000+0  31058-3 0  9999
2 61746  97.2987  43.6760 0006265 270.7776  89.2757 15.47777605137669
HORS 3 (RS81S)          
1 61753U 24199U   26169.82695130  .00029010  00000+0  43212-3 0  9991
2 61753  97.2969  45.6998 0003777 267.5267  92.5555 15.55067661137819
HORS 4 (RS82S)          
1 61754U 24199V   26169.84673757  .00035990  00000+0  44886-3 0  9997
2 61754  97.2914  46.9325 0003256 247.1480 112.9433 15.59807902137907
SIT-2086                
1 61764U 24199AF  26169.80718848  .00028199  00000+0  44983-3 0  9996
2 61764  97.2926  46.1506 0004757 241.8589 118.2184 15.53176482134682
HYPERVIEW 1G (RS66S)    
1 61772U 24199AP  26169.52300580  .00119986  00000+0  76128-3 0  9995
2 61772  97.2864  49.3091 0004092 213.0172 147.0839 15.76152791134888
ALTAIR (RS65S)          
1 61779U 24199AW  26169.80467248  .00006374  00000+0  17781-3 0  9994
2 61779  97.3023  39.1446 0010990 304.6298  55.3910 15.37042356137363
ASRTU-1 (AO-123)        
1 61781U 24199AY  26169.85915098  .00006296  00000+0  18330-3 0  9997
2 61781  97.2994  38.5146 0012169 307.4098  52.6038 15.35695532134187
SAMSAT-IONOSPHERE (RS7*)
1 61784U 24199BB  26169.85815500  .00034423  00000+0  46376-3 0  9991
2 61784  97.2936  45.7847 0005933 267.6417  92.4159 15.57746683137825
RTU MIREA 1 (RS51S)     
1 61785U 24199BC  26169.87884925  .00045122  00000+0  53176-3 0  9995
2 61785  97.2924  46.6462 0005582 258.2648 101.7983 15.61238140134733
TEVEL2-4                
1 63213U 25052D   26169.16026822  .00013925  00000+0  41679-3 0  9999
2 63213  97.3899  65.5534 0004892 101.1057 259.0736 15.34638877 70267
TEVEL2-5                
1 63214U 25052E   26169.24609025  .00014381  00000+0  43269-3 0  9995
2 63214  97.3896  65.5869 0004830 102.4501 257.7282 15.34468179 70274
TEVEL2-6                
1 63215U 25052F   26169.64972185  .00014665  00000+0  44149-3 0  9993
2 63215  97.3902  65.9753 0004754 102.3896 257.7879 15.34444200 70338
TEVEL2-1                
1 63217U 25052H   26167.98311732  .00015254  00000+0  46759-3 0  9999
2 63217  97.3878  63.9315 0004776 114.0246 246.1497 15.33862790 70062
TEVEL2-3                
1 63218U 25052J   26169.21721413  .00013636  00000+0  41717-3 0  9990
2 63218  97.3876  65.1876 0004784 111.6864 248.4888 15.33951855 70256
TEVEL2-2                
1 63219U 25052K   26169.61432708  .00013531  00000+0  41444-3 0  9992
2 63219  97.3876  65.5651 0004772 111.0401 249.1353 15.33915374 70318
TEVEL2-9                
1 63237U 25052AD  26169.20167564  .00012483  00000+0  40696-3 0  9995
2 63237  97.3936  64.5254 0007883 127.9534 232.2421 15.31922489 70189
TEVEL2-7                
1 63238U 25052AE  26169.70010282  .00011996  00000+0  39463-3 0  9993
2 63238  97.3937  64.9383 0008007 127.0437 233.1538 15.31638838 70259
TEVEL2-8                
1 63239U 25052AF  26169.64303769  .00012666  00000+0  41670-3 0  9990
2 63239  97.3938  64.8582 0007990 127.5686 232.6282 15.31622115 70242
INNOSAT 16 (RS92S7)     
1 64878U 25155C   26169.83873159  .00004522  00000+0  18134-3 0  9991
2 64878  97.4567 136.9612 0010739 169.7644 190.3814 15.25470587 80927
GEOSCAN 6 (RS92S6)      
1 64879U 25155D   26169.81643657  .00007755  00000+0  26797-3 0  9993
2 64879  97.4560 138.3745 0008560 157.2080 202.9542 15.30176396 81015
GEOSCAN 1 (RS92S1)      
1 64880U 25155E   26169.81825183  .00008365  00000+0  28357-3 0  9993
2 64880  97.4557 138.5257 0008488 156.9214 203.2410 15.30773323 81029
239ALFEROV (RS61S)      
1 64881U 25155F   26169.85083568  .00011270  00000+0  35582-3 0  9998
2 64881  97.4558 139.1255 0008222 153.8262 206.3397 15.32976230 81067
GEOSCAN 2 (RS92S2)      
1 64890U 25155Q   26169.81164753  .00008624  00000+0  28984-3 0  9997
2 64890  97.4556 138.6723 0008284 144.6151 215.5641 15.31044892 81032
GEOSCAN 5 (RS92S5)      
1 64891U 25155R   26169.83951605  .00010724  00000+0  33548-3 0  9996
2 64891  97.4550 139.2522 0006981 157.4428 202.7122 15.33293019 81077
GEOSCAN 4 (RS92S4)      
1 64892U 25155S   26169.88879668  .00010700  00000+0  33311-3 0  9992
2 64892  97.4554 139.3509 0007042 156.9135 203.2425 15.33449245 81083
GEOSCAN 3 (RS92S3)      
1 64893U 25155T   26169.88735008  .00013201  00000+0  38524-3 0  9992
2 64893  97.4542 139.7840 0006994 155.2602 204.8978 15.35442292 81110
