OBJECT_NAME,OBJECT_ID,EPOCH,MEAN_MOTION,ECCENTRICITY,INCLINATION,RA_OF_ASC_NODE,ARG_OF_PERICENTER,MEAN_ANOMALY,EPHEMERIS_TYPE,CLASSIFICATION_TYPE,NORAD_CAT_ID,ELEMENT_SET_NO,REV_AT_EPOCH,BSTAR,MEAN_MOTION_DOT,MEAN_MOTION_DDOT
KUZGTU 1 (RS47S),2023-091AV,2026-06-18T20:46:19.316640,15.29892478,.0012275,97.5059,234.3626,92.8486,267.4159,0,U,57217,999,16463,.32301E-3,.9294E-4,0
SONATE-2,2024-043Q,2026-06-18T16:17:46.762080,15.58811253,.0007133,97.5539,320.1662,190.3549,169.7561,0,U,59112,999,12812,.39665E-3,.30619E-3,0
MESAT1,2024-125G,2026-06-18T07:44:23.426304,15.63304730,.0009668,97.2281,26.8304,199.4839,160.6052,0,U,60209,999,10974,.50655E-3,.46639E-3,0
OOV-CUBE (TUBSAT-30),2024-128F,2026-06-18T14:03:38.934720,15.02778203,.0044464,61.9932,220.6959,134.0792,226.3973,0,U,60240,999,10632,.11902E-3,.1416E-4,0
COLIBRI-S (RS67S),2024-199M,2026-06-18T19:22:42.201696,15.47777605,.0006265,97.2987,43.6760,270.7776,89.2757,0,U,61746,999,13766,.31058E-3,.16036E-3,0
HORS 3 (RS81S),2024-199U,2026-06-18T19:50:48.592320,15.55067661,.0003777,97.2969,45.6998,267.5267,92.5555,0,U,61753,999,13781,.43212E-3,.2901E-3,0
HORS 4 (RS82S),2024-199V,2026-06-18T20:19:18.126048,15.59807902,.0003256,97.2914,46.9325,247.1480,112.9433,0,U,61754,999,13790,.44886E-3,.3599E-3,0
SIT-2086,2024-199AF,2026-06-18T19:22:21.084672,15.53176482,.0004757,97.2926,46.1506,241.8589,118.2184,0,U,61764,999,13468,.44983E-3,.28199E-3,0
HYPERVIEW 1G (RS66S),2024-199AP,2026-06-18T12:33:07.701120,15.76152791,.0004092,97.2864,49.3091,213.0172,147.0839,0,U,61772,999,13488,.76128E-3,.119986E-2,0
ALTAIR (RS65S),2024-199AW,2026-06-18T19:18:43.702272,15.37042356,.001099,97.3023,39.1446,304.6298,55.3910,0,U,61779,999,13736,.17781E-3,.6374E-4,0
ASRTU-1 (AO-123),2024-199AY,2026-06-18T20:37:10.644672,15.35695532,.0012169,97.2994,38.5146,307.4098,52.6038,0,U,61781,999,13418,.1833E-3,.6296E-4,0
SAMSAT-IONOSPHERE (RS75S),2024-199BB,2026-06-18T20:35:44.592000,15.57746683,.0005933,97.2936,45.7847,267.6417,92.4159,0,U,61784,999,13782,.46376E-3,.34423E-3,0
RTU MIREA 1 (RS51S),2024-199BC,2026-06-18T21:05:32.575200,15.61238140,.0005582,97.2924,46.6462,258.2648,101.7983,0,U,61785,999,13473,.53176E-3,.45122E-3,0
TEVEL2-4,2025-052D,2026-06-18T03:50:47.174208,15.34638877,.00048922,97.3899,65.5534,101.1057,259.0736,0,U,63213,999,7026,.416794E-3,.13925E-3,0
TEVEL2-5,2025-052E,2026-06-18T05:54:22.197600,15.34468179,.000483,97.3896,65.5869,102.4501,257.7282,0,U,63214,999,7027,.43269E-3,.14381E-3,0
TEVEL2-6,2025-052F,2026-06-18T15:35:35.967840,15.34444200,.0004754,97.3902,65.9753,102.3896,257.7879,0,U,63215,999,7033,.44149E-3,.14665E-3,0
TEVEL2-1,2025-052H,2026-06-16T23:35:41.336448,15.33862790,.0004776,97.3878,63.9315,114.0246,246.1497,0,U,63217,999,7006,.46759393E-3,.15254E-3,0
TEVEL2-3,2025-052J,2026-06-18T05:12:47.300832,15.33951855,.0004784,97.3876,65.1876,111.6864,248.4888,0,U,63218,999,7025,.41717E-3,.13636E-3,0
TEVEL2-2,2025-052K,2026-06-18T14:44:37.859712,15.33915374,.0004772,97.3876,65.5651,111.0401,249.1353,0,U,63219,999,7031,.41444E-3,.13531E-3,0
TEVEL2-9,2025-052AD,2026-06-18T04:50:24.775296,15.31922489,.0007883,97.3936,64.5254,127.9534,232.2421,0,U,63237,999,7018,.40696E-3,.12483E-3,0
TEVEL2-7,2025-052AE,2026-06-18T16:48:08.883648,15.31638838,.0008007,97.3937,64.9383,127.0437,233.1538,0,U,63238,999,7025,.39463E-3,.11996E-3,0
TEVEL2-8,2025-052AF,2026-06-18T15:25:58.456416,15.31622115,.000799,97.3938,64.8582,127.5686,232.6282,0,U,63239,999,7024,.4167E-3,.12666E-3,0
INNOSAT 16 (RS92S7),2025-155C,2026-06-18T20:07:46.409376,15.25470587,.0010739,97.4567,136.9612,169.7644,190.3814,0,U,64878,999,8092,.18134E-3,.4522E-4,0
GEOSCAN 6 (RS92S6),2025-155D,2026-06-18T19:35:40.119648,15.30176396,.000856,97.4560,138.3745,157.2080,202.9542,0,U,64879,999,8101,.26797E-3,.7755E-4,0
GEOSCAN 1 (RS92S1),2025-155E,2026-06-18T19:38:16.958112,15.30773323,.0008488,97.4557,138.5257,156.9214,203.2410,0,U,64880,999,8102,.28357E-3,.8365E-4,0
239ALFEROV (RS61S),2025-155F,2026-06-18T20:25:12.202752,15.32976230,.0008222,97.4558,139.1255,153.8262,206.3397,0,U,64881,999,8106,.35582E-3,.1127E-3,0
GEOSCAN 2 (RS92S2),2025-155Q,2026-06-18T19:28:46.346592,15.31044892,.0008284,97.4556,138.6723,144.6151,215.5641,0,U,64890,999,8103,.28984E-3,.8624E-4,0
GEOSCAN 5 (RS92S5),2025-155R,2026-06-18T20:08:54.186720,15.33293019,.0006981,97.4550,139.2522,157.4428,202.7122,0,U,64891,999,8107,.33548E-3,.10724E-3,0
GEOSCAN 4 (RS92S4),2025-155S,2026-06-18T21:19:52.033152,15.33449245,.0007042,97.4554,139.3509,156.9135,203.2425,0,U,64892,999,8108,.33311E-3,.107E-3,0
GEOSCAN 3 (RS92S3),2025-155T,2026-06-18T21:17:47.046912,15.35442292,.0006994,97.4542,139.7840,155.2602,204.8978,0,U,64893,999,8111,.38524E-3,.13201E-3,0
